OBJECT_NAME,OBJECT_ID,EPOCH,MEAN_MOTION,ECCENTRICITY,INCLINATION,RA_OF_ASC_NODE,ARG_OF_PERICENTER,MEAN_ANOMALY,EPHEMERIS_TYPE,CLASSIFICATION_TYPE,NORAD_CAT_ID,ELEMENT_SET_NO,REV_AT_EPOCH,BSTAR,MEAN_MOTION_DOT,MEAN_MOTION_DDOT
LEMUR-2-STARLIGHT,2025-276DY,2026-07-12T15:59:40.843680,14.99335039,.00148107,97.5235,263.4338,54.7591,305.5017,0,U,66783,999,3401,.30465516E-3,.3675E-4,0
LEMUR-2-TARTIFLETTE,2025-276DZ,2026-07-12T17:33:26.701920,14.99322354,.00138728,97.5235,263.5049,62.7426,297.5209,0,U,66784,999,3402,.29192288E-3,.3516E-4,0
LEMUR-2-VUKASIN,2025-276EA,2026-07-13T04:05:47.766336,15.00535741,.00034042,97.5238,264.2842,60.3374,299.8189,0,U,66785,999,3404,.22475906E-3,.2777E-4,0
LEMUR-2-HOTSPUR-TOM,2025-276EB,2026-07-12T19:01:15.763584,14.99227481,.00137831,97.5223,263.5388,53.6491,306.6002,0,U,66786,999,3396,.28941245E-3,.3477E-4,0
LEMUR-2-MYRA,2025-276EC,2026-07-12T17:39:39.104064,15.00572080,.00186053,97.5226,263.7829,61.6382,298.6715,0,U,66787,999,3404,.29064221E-3,.3624E-4,0
LEMUR-2 FIKRETDENGIZ,2026-004A,2026-07-12T22:47:09.379968,14.88507915,.00103065,97.8023,192.1152,62.1023,298.1237,0,U,67363,999,2711,.27683743E-3,.252E-4,0
TWILIGHT-1 OBJECT B,2026-004B,2026-07-13T10:57:00.554688,14.87790202,.0009859,97.8074,192.6163,50.9496,309.2596,0,U,67364,999,2719,.11174E-3,.966E-5,0
LEMUR-2-MARIO-SOUSA,2026-004C,2026-07-12T23:55:23.936448,14.88716641,.00099404,97.7995,192.1569,63.2656,296.9577,0,U,67365,999,2713,.29238783E-3,.2679E-4,0
LEMUR-2-SONNENBLUME,2026-004E,2026-07-13T11:16:33.777696,14.88448171,.0009494,97.7992,192.5964,63.2599,296.9589,0,U,67367,999,2720,.19214E-3,.1729E-4,0
LEMUR-2-WOBLER,2026-004F,2026-07-13T11:01:32.585088,14.88690103,.0009578,97.8046,192.7353,55.0597,305.1518,0,U,67368,999,2720,.22421E-3,.204E-4,0
LEMUR-2-GRAM-E-SUE,2026-004H,2026-07-13T10:50:01.932000,14.88584814,.0008698,97.7986,192.5948,65.6366,294.5758,0,U,67370,999,2720,.14492E-3,.1295E-4,0
LEMUR-2-KATIE,2026-004AA,2026-07-12T22:34:02.206848,14.90239334,.00036713,97.8041,192.6354,39.3280,320.8204,0,U,67387,999,2714,.33168129E-3,.3162E-4,0
LEMUR-2-HCS-BAZUS,2026-004AB,2026-07-13T11:25:11.680032,14.90255986,.0003159,97.8039,193.1431,36.6639,323.4794,0,U,67388,999,2722,.17245E-3,.1618E-4,0
